[{"OBJECT_NAME":"FLOCK 4G-23","OBJECT_ID":"2025-009AQ","EPOCH":"2026-03-09T17:11:57.175872","MEAN_MOTION":15.27262579,"ECCENTRICITY":9.048e-5,"INCLINATION":97.3979,"RA_OF_ASC_NODE":150.9478,"ARG_OF_PERICENTER":7.2707,"MEAN_ANOMALY":352.8545,"EPHEMERIS_TYPE":0,"CLASSIFICATION_TYPE":"U","NORAD_CAT_ID":62647,"ELEMENT_SET_NO":999,"REV_AT_EPOCH":6372,"BSTAR":0.00046815788,"MEAN_MOTION_DOT":0.0001244,"MEAN_MOTION_DDOT":0},{"OBJECT_NAME":"CZ-6A DEB","OBJECT_ID":"2022-151NB","EPOCH":"2026-03-09T18:26:17.609568","MEAN_MOTION":15.22372787,"ECCENTRICITY":0.00267955,"INCLINATION":98.6489,"RA_OF_ASC_NODE":154.0342,"ARG_OF_PERICENTER":180.4296,"MEAN_ANOMALY":179.6918,"EPHEMERIS_TYPE":0,"CLASSIFICATION_TYPE":"U","NORAD_CAT_ID":54601,"ELEMENT_SET_NO":999,"REV_AT_EPOCH":17694,"BSTAR":0.011449911,"MEAN_MOTION_DOT":0.00276508,"MEAN_MOTION_DDOT":0}]
